{
    "links": {
        "self": "http://www.neowsapp.com/rest/v1/neo/3647279?api_key=iIulBulltgU6a56xZRHN4H3l9WmuAYTsLGpBGhQ2"
    },
    "id": "3647279",
    "neo_reference_id": "3647279",
    "name": "(2013 RN21)",
    "designation": "2013 RN21",
    "nasa_jpl_url": "http://ssd.jpl.nasa.gov/sbdb.cgi?sstr=3647279",
    "absolute_magnitude_h": 21.7,
    "estimated_diameter": {
        "kilometers": {
            "estimated_diameter_min": 0.1214940408,
            "estimated_diameter_max": 0.2716689341
        },
        "meters": {
            "estimated_diameter_min": 121.4940407996,
            "estimated_diameter_max": 271.6689340891
        },
        "miles": {
            "estimated_diameter_min": 0.0754928736,
            "estimated_diameter_max": 0.1688071972
        },
        "feet": {
            "estimated_diameter_min": 398.6025088171,
            "estimated_diameter_max": 891.3023057169
        }
    },
    "is_potentially_hazardous_asteroid": false,
    "close_approach_data": [
        {
            "close_approach_date": "1979-09-11",
            "close_approach_date_full": "1979-Sep-11 18:47",
            "epoch_date_close_approach": 305923620000,
            "relative_velocity": {
                "kilometers_per_second": "20.2325544514",
                "kilometers_per_hour": "72837.196025004",
                "miles_per_hour": "45258.2010523143"
            },
            "miss_distance": {
                "astronomical": "0.4480474256",
                "lunar": "174.2904485584",
                "kilometers": "67026940.528743472",
                "miles": "41648609.5728730336"
            },
            "orbiting_body": "Earth"
        },
        {
            "close_approach_date": "1998-05-24",
            "close_approach_date_full": "1998-May-24 11:32",
            "epoch_date_close_approach": 896009520000,
            "relative_velocity": {
                "kilometers_per_second": "21.2406371485",
                "kilometers_per_hour": "76466.2937346414",
                "miles_per_hour": "47513.1812375054"
            },
            "miss_distance": {
                "astronomical": "0.4938390335",
                "lunar": "192.1033840315",
                "kilometers": "73877267.534458645",
                "miles": "45905205.393253501"
            },
            "orbiting_body": "Earth"
        },
        {
            "close_approach_date": "2013-06-25",
            "close_approach_date_full": "2013-Jun-25 17:56",
            "epoch_date_close_approach": 1372182960000,
            "relative_velocity": {
                "kilometers_per_second": "9.3449571586",
                "kilometers_per_hour": "33641.8457711356",
                "miles_per_hour": "20903.7346681815"
            },
            "miss_distance": {
                "astronomical": "0.1337911557",
                "lunar": "52.0447595673",
                "kilometers": "20014871.917558359",
                "miles": "12436664.7137649942"
            },
            "orbiting_body": "Earth"
        },
        {
            "close_approach_date": "2047-09-08",
            "close_approach_date_full": "2047-Sep-08 08:09",
            "epoch_date_close_approach": 2451542940000,
            "relative_velocity": {
                "kilometers_per_second": "19.2057676748",
                "kilometers_per_hour": "69140.7636294416",
                "miles_per_hour": "42961.3817118606"
            },
            "miss_distance": {
                "astronomical": "0.4508283169",
                "lunar": "175.3722152741",
                "kilometers": "67442955.943925003",
                "miles": "41907109.5650629214"
            },
            "orbiting_body": "Earth"
        },
        {
            "close_approach_date": "2183-06-01",
            "close_approach_date_full": "2183-Jun-01 15:30",
            "epoch_date_close_approach": 6734763000000,
            "relative_velocity": {
                "kilometers_per_second": "20.1329234012",
                "kilometers_per_hour": "72478.5242443855",
                "miles_per_hour": "45035.336356185"
            },
            "miss_distance": {
                "astronomical": "0.4759248953",
                "lunar": "185.1347842717",
                "kilometers": "71197350.616853011",
                "miles": "44239982.2380771118"
            },
            "orbiting_body": "Earth"
        }
    ],
    "orbital_data": {
        "orbit_id": "11",
        "orbit_determination_date": "2017-04-06 08:44:48",
        "first_observation_date": "2013-09-04",
        "last_observation_date": "2013-10-12",
        "data_arc_in_days": 38,
        "observations_used": 27,
        "orbit_uncertainty": "6",
        "minimum_orbit_intersection": ".0726557",
        "jupiter_tisserand_invariant": "3.273",
        "epoch_osculation": "2459000.5",
        "eccentricity": ".560428314346574",
        "semi_major_axis": "2.423887179944392",
        "inclination": "4.887812666792664",
        "ascending_node_longitude": "158.5716439850051",
        "orbital_period": "1378.373863195069",
        "perihelion_distance": "1.065472173521886",
        "perihelion_argument": "138.97611345",
        "aphelion_distance": "3.782302186366898",
        "perihelion_time": "2459243.090426727884",
        "mean_anomaly": "296.6408810019066",
        "mean_motion": ".2611773261323458",
        "equinox": "J2000",
        "orbit_class": {
            "orbit_class_type": "AMO",
            "orbit_class_description": "Near-Earth asteroid orbits similar to that of 1221 Amor",
            "orbit_class_range": "1.017 AU < q (perihelion) < 1.3 AU"
        }
    },
    "is_sentry_object": false
}